[{"OBJECT_NAME":"MARAFON-D GVM","OBJECT_ID":"2024-039V","EPOCH":"2026-03-09T22:15:16.896096","MEAN_MOTION":14.45961623,"ECCENTRICITY":0.00149761,"INCLINATION":88.9816,"RA_OF_ASC_NODE":295.8376,"ARG_OF_PERICENTER":319.0552,"MEAN_ANOMALY":40.9527,"EPHEMERIS_TYPE":0,"CLASSIFICATION_TYPE":"U","NORAD_CAT_ID":59072,"ELEMENT_SET_NO":999,"REV_AT_EPOCH":10684,"BSTAR":8.0103078e-5,"MEAN_MOTION_DOT":3.0e-6,"MEAN_MOTION_DDOT":0},{"OBJECT_NAME":"FENGYUN 1C DEB","OBJECT_ID":"1999-025FAB","EPOCH":"2026-03-09T10:23:20.368032","MEAN_MOTION":14.39434356,"ECCENTRICITY":0.0051668,"INCLINATION":99.2918,"RA_OF_ASC_NODE":138.7118,"ARG_OF_PERICENTER":156.6064,"MEAN_ANOMALY":203.7488,"EPHEMERIS_TYPE":0,"CLASSIFICATION_TYPE":"U","NORAD_CAT_ID":47001,"ELEMENT_SET_NO":999,"REV_AT_EPOCH":75161,"BSTAR":0.0018311139,"MEAN_MOTION_DOT":5.745e-5,"MEAN_MOTION_DDOT":0}]
